{
  "type": "FeatureCollection",
  "features": [
    {
      "type": "Feature",
      "properties": {
        "norad_id": 43286,
        "name": "IRNSS-1I",
        "group": "gnss",
        "lat": 15.890702616085271,
        "lon": 107.81904252044173,
        "alt_km": 35863.65342299664,
        "timestamp": "2025-12-07T22:37:43.322323+00:00",
        "meta_object_name": "IRNSS-1I",
        "meta_object_id": "2018-035A",
        "meta_epoch": "2025-12-06T20:28:14.905056",
        "meta_mean_motion": 1.00268657,
        "meta_eccentricity": 0.00219858,
        "meta_inclination": 29.136,
        "meta_ra_of_asc_node": 77.1891,
        "meta_arg_of_pericenter": 181.8119,
        "meta_mean_anomaly": 179.0164,
        "meta_ephemeris_type": 0,
        "meta_classification_type": "U",
        "meta_norad_cat_id": 43286,
        "meta_element_set_no": 999,
        "meta_rev_at_epoch": 2815,
        "meta_bstar": 0,
        "meta_mean_motion_dot": 7.2e-07,
        "meta_mean_motion_ddot": 0,
        "tle_line1": "1 43286U 18035A   25340.85295029  .00000072  00000+0  00000+0 0  9991",
        "tle_line2": "2 43286  29.1360  77.1891 0021985 181.8119 179.0164  1.00268657 28152"
      },
      "geometry": {
        "type": "Point",
        "coordinates": [
          107.81904252044173,
          15.890702616085271
        ]
      }
    },
    {
      "type": "Feature",
      "properties": {
        "norad_id": 43508,
        "name": "COSMOS 2527 (756)",
        "group": "gnss",
        "lat": -54.18310169504284,
        "lon": -60.523505283766056,
        "alt_km": 19114.7581273718,
        "timestamp": "2025-12-07T22:37:43.322341+00:00",
        "meta_object_name": "COSMOS 2527 (756)",
        "meta_object_id": "2018-053A",
        "meta_epoch": "2025-12-07T03:45:49.475232",
        "meta_mean_motion": 2.13102044,
        "meta_eccentricity": 0.00087312,
        "meta_inclination": 65.4694,
        "meta_ra_of_asc_node": 80.3184,
        "meta_arg_of_pericenter": 225.1381,
        "meta_mean_anomaly": 134.8008,
        "meta_ephemeris_type": 0,
        "meta_classification_type": "U",
        "meta_norad_cat_id": 43508,
        "meta_element_set_no": 999,
        "meta_rev_at_epoch": 5818,
        "meta_bstar": 0,
        "meta_mean_motion_dot": -1.2e-07,
        "meta_mean_motion_ddot": 0,
        "tle_line1": "1 43508U 18053A   25341.15682263 -.00000012  00000+0  00000+0 0  9997",
        "tle_line2": "2 43508  65.4694  80.3184 0008731 225.1381 134.8008  2.13102044 58184"
      },
      "geometry": {
        "type": "Point",
        "coordinates": [
          -60.523505283766056,
          -54.18310169504284
        ]
      }
    },
    {
      "type": "Feature",
      "properties": {
        "norad_id": 43539,
        "name": "BEIDOU-2 IGSO-7 (C16)",
        "group": "gnss",
        "lat": 3.020572715454455,
        "lon": 166.81436319853685,
        "alt_km": 36030.45234638463,
        "timestamp": "2025-12-07T22:37:43.322362+00:00",
        "meta_object_name": "BEIDOU-2 IGSO-7 (C16)",
        "meta_object_id": "2018-057A",
        "meta_epoch": "2025-12-06T22:34:51.744288",
        "meta_mean_motion": 1.00258613,
        "meta_eccentricity": 0.00924955,
        "meta_inclination": 55.1738,
        "meta_ra_of_asc_node": 164.7221,
        "meta_arg_of_pericenter": 235.206,
        "meta_mean_anomaly": 125.9942,
        "meta_ephemeris_type": 0,
        "meta_classification_type": "U",
        "meta_norad_cat_id": 43539,
        "meta_element_set_no": 999,
        "meta_rev_at_epoch": 2720,
        "meta_bstar": 0,
        "meta_mean_motion_dot": -6.3e-07,
        "meta_mean_motion_ddot": 0,
        "tle_line1": "1 43539U 18057A   25340.94087667 -.00000063  00000+0  00000+0 0  9994",
        "tle_line2": "2 43539  55.1738 164.7221 0092495 235.2060 125.9942  1.00258613 27204"
      },
      "geometry": {
        "type": "Point",
        "coordinates": [
          166.81436319853685,
          3.020572715454455
        ]
      }
    },
    {
      "type": "Feature",
      "properties": {
        "norad_id": 43564,
        "name": "GSAT0221 (GALILEO 25)",
        "group": "gnss",
        "lat": 49.23719531144253,
        "lon": 35.308364692533395,
        "alt_km": 23232.01025859328,
        "timestamp": "2025-12-07T22:37:43.322381+00:00",
        "meta_object_name": "GSAT0221 (GALILEO 25)",
        "meta_object_id": "2018-060A",
        "meta_epoch": "2025-12-06T15:57:28.986048",
        "meta_mean_motion": 1.70475679,
        "meta_eccentricity": 0.00066883,
        "meta_inclination": 57.2291,
        "meta_ra_of_asc_node": 346.9817,
        "meta_arg_of_pericenter": 281.5609,
        "meta_mean_anomaly": 78.3858,
        "meta_ephemeris_type": 0,
        "meta_classification_type": "U",
        "meta_norad_cat_id": 43564,
        "meta_element_set_no": 999,
        "meta_rev_at_epoch": 4588,
        "meta_bstar": 0,
        "meta_mean_motion_dot": -8.1e-07,
        "meta_mean_motion_ddot": 0,
        "tle_line1": "1 43564U 18060A   25340.66491882 -.00000081  00000+0  00000+0 0  9993",
        "tle_line2": "2 43564  57.2291 346.9817 0006688 281.5609  78.3858  1.70475679 45887"
      },
      "geometry": {
        "type": "Point",
        "coordinates": [
          35.308364692533395,
          49.23719531144253
        ]
      }
    },
    {
      "type": "Feature",
      "properties": {
        "norad_id": 43565,
        "name": "GSAT0222 (GALILEO 26)",
        "group": "gnss",
        "lat": -52.33420031442979,
        "lon": -69.61440018757051,
        "alt_km": 23211.6354850428,
        "timestamp": "2025-12-07T22:37:43.322399+00:00",
        "meta_object_name": "GSAT0222 (GALILEO 26)",
        "meta_object_id": "2018-060B",
        "meta_epoch": "2025-12-05T17:03:57.438144",
        "meta_mean_motion": 1.70475397,
        "meta_eccentricity": 0.00061787,
        "meta_inclination": 57.2328,
        "meta_ra_of_asc_node": 347.0105,
        "meta_arg_of_pericenter": 261.4004,
        "meta_mean_anomaly": 98.5552,
        "meta_ephemeris_type": 0,
        "meta_classification_type": "U",
        "meta_norad_cat_id": 43565,
        "meta_element_set_no": 999,
        "meta_rev_at_epoch": 4591,
        "meta_bstar": 0,
        "meta_mean_motion_dot": -7.7e-07,
        "meta_mean_motion_ddot": 0,
        "tle_line1": "1 43565U 18060B   25339.71108146 -.00000077  00000+0  00000+0 0  9991",
        "tle_line2": "2 43565  57.2328 347.0105 0006178 261.4004  98.5552  1.70475397 45917"
      },
      "geometry": {
        "type": "Point",
        "coordinates": [
          -69.61440018757051,
          -52.33420031442979
        ]
      }
    },
    {
      "type": "Feature",
      "properties": {
        "norad_id": 43566,
        "name": "GSAT0219 (GALILEO 23)",
        "group": "gnss",
        "lat": 21.702645298592493,
        "lon": 152.0945049067226,
        "alt_km": 23230.771372600135,
        "timestamp": "2025-12-07T22:37:43.322422+00:00",
        "meta_object_name": "GSAT0219 (GALILEO 23)",
        "meta_object_id": "2018-060C",
        "meta_epoch": "2025-12-05T22:22:25.031424",
        "meta_mean_motion": 1.70475627,
        "meta_eccentricity": 0.00057672,
        "meta_inclination": 57.232,
        "meta_ra_of_asc_node": 347.0061,
        "meta_arg_of_pericenter": 285.4394,
        "meta_mean_anomaly": 74.5216,
        "meta_ephemeris_type": 0,
        "meta_classification_type": "U",
        "meta_norad_cat_id": 43566,
        "meta_element_set_no": 999,
        "meta_rev_at_epoch": 4589,
        "meta_bstar": 0,
        "meta_mean_motion_dot": -7.8e-07,
        "meta_mean_motion_ddot": 0,
        "tle_line1": "1 43566U 18060C   25339.93223416 -.00000078  00000+0  00000+0 0  9995",
        "tle_line2": "2 43566  57.2320 347.0061 0005767 285.4394  74.5216  1.70475627 45896"
      },
      "geometry": {
        "type": "Point",
        "coordinates": [
          152.0945049067226,
          21.702645298592493
        ]
      }
    },
    {
      "type": "Feature",
      "properties": {
        "norad_id": 43567,
        "name": "GSAT0220 (GALILEO 24)",
        "group": "gnss",
        "lat": 15.376093771834118,
        "lon": -2.8450866001731776,
        "alt_km": 23222.418816947178,
        "timestamp": "2025-12-07T22:37:43.322440+00:00",
        "meta_object_name": "GSAT0220 (GALILEO 24)",
        "meta_object_id": "2018-060D",
        "meta_epoch": "2025-12-04T23:31:11.369280",
        "meta_mean_motion": 1.70475333,
        "meta_eccentricity": 0.00061638,
        "meta_inclination": 57.2318,
        "meta_ra_of_asc_node": 347.0321,
        "meta_arg_of_pericenter": 281.7737,
        "meta_mean_anomaly": 78.1861,
        "meta_ephemeris_type": 0,
        "meta_classification_type": "U",
        "meta_norad_cat_id": 43567,
        "meta_element_set_no": 999,
        "meta_rev_at_epoch": 4586,
        "meta_bstar": 0,
        "meta_mean_motion_dot": -7.4e-07,
        "meta_mean_motion_ddot": 0,
        "tle_line1": "1 43567U 18060D   25338.97999270 -.00000074  00000+0  00000+0 0  9993",
        "tle_line2": "2 43567  57.2318 347.0321 0006163 281.7737  78.1861  1.70475333 45861"
      },
      "geometry": {
        "type": "Point",
        "coordinates": [
          -2.8450866001731776,
          15.376093771834118
        ]
      }
    }
  ]
}